OBJECT_NAME,OBJECT_ID,EPOCH,MEAN_MOTION,ECCENTRICITY,INCLINATION,RA_OF_ASC_NODE,ARG_OF_PERICENTER,MEAN_ANOMALY,EPHEMERIS_TYPE,CLASSIFICATION_TYPE,NORAD_CAT_ID,ELEMENT_SET_NO,REV_AT_EPOCH,BSTAR,MEAN_MOTION_DOT,MEAN_MOTION_DDOT
STARLINK-35472,2025-225D,2026-06-27T12:58:43.023936,15.34401455,.0001532,53.1609,14.9515,97.1567,262.9609,0,U,65913,999,4123,.59212E-3,.19683E-3,0
STARLINK-35524,2025-225E,2026-06-27T12:55:41.474208,15.34402641,.0001844,53.1604,14.9328,82.8775,277.2437,0,U,65914,999,4123,.80843E-3,.27039E-3,0
STARLINK-35539,2025-225F,2026-06-27T06:14:43.083168,15.30222257,.0001229,53.1606,16.7688,111.4243,248.6889,0,U,65915,999,4118,.14986E-2,.44321E-3,0
STARLINK-35521,2025-225G,2026-06-27T00:55:36.983136,15.34381025,.00010093,53.1597,17.5054,82.3388,277.7729,0,U,65916,999,4115,.72280508E-3,.24109E-3,0
STARLINK-35478,2025-225H,2026-06-27T13:07:48.703008,15.34390492,.0001441,53.1609,14.9900,85.7695,274.3472,0,U,65917,999,4123,.1037E-2,.34812E-3,0
STARLINK-35516,2025-225J,2026-06-27T05:56:28.947264,15.30190888,.000095,53.1590,16.6701,74.8003,285.3102,0,U,65918,999,4118,.68056E-3,.19845E-3,0
STARLINK-35519,2025-225K,2026-06-27T12:00:02.000160,15.33455091,.0001736,53.1603,15.2326,84.1803,0.1387,0,U,65919,999,576,.29204E-2,.96631E-3,0
STARLINK-33902,2025-225L,2026-06-27T06:19:18.089184,15.34400016,.0000936,53.1594,16.0655,97.9006,262.2103,0,U,65920,999,4119,.61952E-3,.20613E-3,0
STARLINK-35530,2025-225M,2026-06-27T06:46:33.716352,15.34391980,.0001128,53.1609,16.1800,92.0997,268.0135,0,U,65921,999,4119,.72794E-3,.24292E-3,0
STARLINK-35544,2025-225N,2026-06-26T20:23:11.427648,15.34377921,.00009762,53.1589,17.7477,104.0017,256.1094,0,U,65922,999,4113,.99684494E-3,.3343E-3,0
STARLINK-35484,2025-225P,2026-06-27T05:52:01.284384,15.34394342,.0000608,53.1584,15.9413,120.5528,239.5534,0,U,65923,999,4119,.6601E-3,.21988E-3,0
STARLINK-34994,2025-225Q,2026-06-27T05:55:03.196128,15.34392918,.0001057,53.1604,15.9540,90.7829,269.3295,0,U,65924,999,4119,.64959E-3,.2163E-3,0
STARLINK-35458,2025-225R,2026-06-27T06:22:19.760736,15.34389021,.0000898,53.1600,16.0705,62.1643,297.9450,0,U,65925,999,4119,.71497E-3,.23848E-3,0
STARLINK-35492,2025-225S,2026-06-27T06:04:09.079968,15.34424208,.0001419,53.1593,15.9894,71.8927,288.2230,0,U,65926,999,4119,.71291E-3,.23805E-3,0
STARLINK-35494,2025-225T,2026-06-27T05:48:59.668992,15.34393657,.0000992,53.1582,15.9321,72.1238,287.9873,0,U,65927,999,4119,.87466E-3,.29285E-3,0
STARLINK-35493,2025-225U,2026-06-27T12:49:37.687872,15.34405838,.0001784,53.1600,14.9114,77.6537,282.4666,0,U,65928,999,4123,.69942E-3,.23333E-3,0
STARLINK-35175,2025-225V,2026-06-27T06:10:09.486336,15.30201797,.0001334,53.1587,16.7258,88.8031,271.3123,0,U,65929,999,4118,.90049E-3,.26407E-3,0
STARLINK-35513,2025-225W,2026-06-26T22:18:11.596032,15.34392352,.0000795,53.1582,17.5341,92.1546,267.9548,0,U,65930,999,4114,.10581E-2,.35535E-3,0
STARLINK-35526,2025-225X,2026-06-26T20:41:16.337760,15.30190988,.00010382,53.1585,18.5263,136.2112,223.8972,0,U,65931,999,4112,.60754932E-3,.17673E-3,0
STARLINK-35436,2025-225Y,2026-06-27T06:01:02.335008,15.30198138,.0001067,53.1606,16.6869,76.5539,283.5580,0,U,65932,999,4118,.67494E-3,.19682E-3,0
STARLINK-35192,2025-225Z,2026-06-27T12:16:18.988896,15.34403846,.0000672,53.1578,14.7666,93.2733,266.8347,0,U,65933,999,4123,.11105E-2,.37336E-3,0
STARLINK-33921,2025-225AA,2026-06-27T05:51:53.950752,15.30227607,.0000717,53.1582,16.6477,98.6954,261.4128,0,U,65934,999,4029,.8462E-3,.24808E-3,0
STARLINK-35155,2025-225AB,2026-06-27T06:16:15.633120,15.34408304,.0000528,53.1595,16.0488,83.0998,277.0064,0,U,65935,999,4030,.76778E-3,.2566E-3,0
STARLINK-35161,2025-225AC,2026-06-27T12:43:34.946112,15.34382837,.000114,53.1594,14.8847,64.7506,295.3615,0,U,65936,999,4034,.58672E-3,.19488E-3,0
STARLINK-35473,2025-225AD,2026-06-27T13:10:50.255328,15.34401601,.000136,53.1595,14.9992,104.7240,255.3913,0,U,65937,999,4034,.82571E-3,.27626E-3,0
2025-226A,2025-226A,2026-06-27T10:48:45.932832,15.16531338,.0015047,97.6446,258.9872,111.4339,248.8500,0,U,65938,999,3925,.47411E-3,.9205E-4,0
2025-226B,2025-226B,2026-06-27T04:21:42.034464,15.08940462,.00136811,97.6396,256.7301,111.7628,248.5058,0,U,65939,999,3908,.24932708E-3,.3879E-4,0
2025-226C,2025-226C,2026-06-27T11:58:01.601760,15.16071650,.0014761,97.6357,258.6154,104.4854,255.8018,0,U,65940,999,3924,.48639E-3,.9322E-4,0
SHIYAN-31,2025-227A,2026-06-27T07:26:44.654784,15.23582750,.0010737,80.0037,120.9800,143.4771,216.7192,0,U,65945,999,3909,.32286E-3,.7754E-4,0
KUIPER-00101,2025-228A,2026-06-27T10:21:07.115040,14.79927817,.0000529,51.8960,235.2812,92.5966,267.5057,0,U,65947,999,3948,.35983E-4,.53E-6,0
KUIPER-00113,2025-228B,2026-06-27T09:40:15.521088,14.79931755,.0000394,51.8965,230.4259,83.3783,276.7224,0,U,65948,999,3954,.87135E-5,-.155E-5,0
KUIPER-00117,2025-228C,2026-06-27T10:25:00.325920,14.79929092,.0000426,51.8972,232.7893,88.5417,271.5594,0,U,65949,999,3951,.51508E-4,.172E-5,0
KUIPER-00121,2025-228D,2026-06-27T09:44:08.505600,14.79929153,.0000399,51.8971,227.9252,83.6239,276.4768,0,U,65950,999,3958,-.39486E-4,-.522E-5,0
KUIPER-00122,2025-228E,2026-06-27T11:05:51.395424,14.79933397,.0000459,51.8967,237.6484,87.4452,272.6562,0,U,65951,999,3945,.19944E-3,.13E-4,0
KUIPER-00123,2025-228F,2026-06-27T08:39:59.020128,14.79937980,.0000273,51.8951,238.1075,83.0084,277.0909,0,U,65952,999,3943,.27822E-3,.1901E-4,0
KUIPER-00124,2025-228G,2026-06-27T10:28:52.480992,14.79938223,.0000457,51.8969,230.2632,91.7099,268.3915,0,U,65953,999,3955,.39088E-3,.276E-4,0
KUIPER-00125,2025-228H,2026-06-27T09:14:56.145120,14.79932613,.0000438,51.8978,215.5320,82.1427,277.9585,0,U,65954,999,3975,.11888E-3,.685E-5,0
KUIPER-00126,2025-228J,2026-06-27T12:46:58.906272,14.79937945,.0000413,51.8975,234.8685,89.7403,270.3606,0,U,65955,999,3949,.36172E-3,.2538E-4,0
KUIPER-00127,2025-228K,2026-06-27T07:42:30.043584,14.79972767,.0000405,51.8984,228.2698,108.2119,251.8888,0,U,65956,999,3957,.99801E-3,.7403E-4,0
KUIPER-00128,2025-228L,2026-06-27T12:10:00.149088,14.79939097,.0000407,51.8989,227.5151,93.1602,266.9407,0,U,65957,999,3959,.35469E-3,.2484E-4,0
KUIPER-00129,2025-228M,2026-06-27T09:51:55.127808,14.79939170,.0000417,51.8983,222.9207,87.9574,272.1436,0,U,65958,999,3965,.38308E-3,.2701E-4,0
KUIPER-00130,2025-228N,2026-06-27T12:13:54.339744,14.79927186,.0000417,51.9015,225.0138,82.5819,277.5190,0,U,65959,999,2992,-.16867E-5,-.234E-5,0
KUIPER-00134,2025-228P,2026-06-27T04:22:15.343392,15.41424623,.00071782,51.8694,148.7087,348.9118,11.1711,0,U,65960,999,4066,.81561713E-3,.34438E-3,0
KUIPER-00135,2025-228Q,2026-06-27T09:48:02.619360,14.79935293,.0000435,51.9001,225.5178,90.3078,269.7934,0,U,65961,999,3961,.37869E-3,.2667E-4,0
KUIPER-00136,2025-228R,2026-06-27T12:17:46.440384,14.79931065,.0000398,51.8988,222.5155,57.9443,302.1558,0,U,65962,999,3966,-.90222E-5,-.29E-5,0
KUIPER-00137,2025-228S,2026-06-27T09:07:11.175744,14.79931534,.0000392,51.9005,220.5904,81.1797,278.9210,0,U,65963,999,3968,-.11944E-4,-.312E-5,0
KUIPER-00138,2025-228T,2026-06-27T11:36:53.973792,14.79933840,.0000398,51.8964,217.5662,92.4888,267.6120,0,U,65964,999,3973,.31121E-3,.2152E-4,0
KUIPER-00140,2025-228U,2026-06-27T09:55:48.013824,14.79939247,.00004,51.8970,220.4651,88.3781,271.7227,0,U,65965,999,3968,.38765E-3,.2736E-4,0
KUIPER-00141,2025-228V,2026-06-27T11:40:47.326368,14.79929110,.0000489,51.9009,215.1926,75.1514,284.9503,0,U,65966,999,3976,.33354E-3,.2322E-4,0
KUIPER-00146,2025-228W,2026-06-27T12:25:33.873888,14.79938021,.0000353,51.9005,217.5658,80.8393,279.2610,0,U,65967,999,3973,.33178E-3,.2309E-4,0
KUIPER-00149,2025-228X,2026-06-27T11:44:42.064800,14.79927789,.0000448,51.8988,212.5798,72.5273,287.5739,0,U,65968,999,3980,.20852E-4,-.62E-6,0
KUIPER-00154,2025-228Y,2026-06-27T10:59:57.045696,14.79940582,.0000373,51.8978,210.2089,77.6211,282.4793,0,U,65969,999,3983,.34157E-3,.2384E-4,0
KUIPER-00157,2025-228Z,2026-06-27T09:18:50.671008,14.79938625,.0000408,51.9001,213.1545,78.5083,281.5926,0,U,65970,999,3978,.35985E-3,.2524E-4,0
STRIX-5,2025-229A,2026-06-27T12:37:07.942368,15.04494848,.0035751,41.9265,230.0655,121.4081,239.0249,0,U,65971,999,3853,.25358E-3,.3464E-4,0
SDA_1664,2025-230A,2026-06-27T12:22:32.592864,13.79689082,.0000932,81.2978,202.8151,106.4210,253.7047,0,U,65974,999,3519,.69207E-4,.83E-6,0
SDA_1665,2025-230B,2026-06-27T12:09:27.204768,13.82046694,.000135,81.2994,202.4120,94.8416,265.2894,0,U,65975,999,3522,.10122E-3,.121E-5,0
SDA_1666,2025-230C,2026-06-27T11:06:10.018944,13.81916767,.0001159,81.2981,202.4526,109.2788,250.8493,0,U,65976,999,3521,.12845E-3,.149E-5,0
SDA_1667,2025-230D,2026-06-27T11:00:30.085056,13.81441886,.0001091,81.2978,202.5936,89.8054,270.3226,0,U,65977,999,3520,.85101E-4,.102E-5,0
SDA_1668,2025-230E,2026-06-27T10:34:51.092832,13.84236793,.0002933,81.2981,201.9786,163.5950,196.5302,0,U,65978,999,3524,.90828E-4,.113E-5,0
SDA_1669,2025-230F,2026-06-27T11:43:56.942400,13.84046746,.0003899,81.2989,202.0491,158.2856,201.8467,0,U,65979,999,3524,.93326E-4,.116E-5,0
SDA_1670,2025-230G,2026-06-27T11:49:21.992160,13.80311506,.0001514,81.2976,202.6244,102.7600,257.3723,0,U,65980,999,3520,.55937E-4,.7E-6,0
SDA_1671,2025-230H,2026-06-27T11:01:52.876128,13.80223479,.000268,81.2985,202.3236,143.9780,216.1555,0,U,65981,999,3522,.12918E-3,.146E-5,0
SDA_1672,2025-230J,2026-06-27T11:28:47.997120,13.82256418,.0001485,81.3001,202.5356,91.1879,268.9447,0,U,65982,999,3521,.1409E-3,.164E-5,0
SDA_1673,2025-230K,2026-06-27T10:52:50.458656,13.82262956,.0000997,81.2995,202.1919,115.1896,244.9363,0,U,65983,999,3523,.13483E-3,.157E-5,0
SDA_1674,2025-230L,2026-06-27T11:51:42.305760,13.82051582,.0001374,81.2987,202.2099,136.2752,223.8512,0,U,65984,999,3523,.10526E-3,.125E-5,0
SDA_1675,2025-230M,2026-06-27T11:42:24.236064,13.84762284,.0004044,81.2963,202.1406,119.8574,240.2985,0,U,65985,999,3523,.1082E-3,.134E-5,0
SDA_1676,2025-230N,2026-06-27T11:56:56.761152,13.78917099,.0001661,81.2999,203.0187,106.9887,253.1449,0,U,65986,999,3518,.55458E-4,.68E-6,0
